0 THORAD AGENA D DEB
1 04911U 70025FH  13281.84766071  .00000957  00000-0  50639-3 0  6256
2 04911 099.9531 222.8012 0074368 199.6288 228.5863 14.15212033214105
0 THORAD AGENA D DEB
1 04911U 70025FH  13287.44658697  .00001422  00000-0  73897-3 0  6273
2 04911 099.9542 229.0432 0074570 183.9954 314.2381 14.15232209214894
0 THORAD AGENA D DEB
1 04911U 70025FH  13289.83490475  .00001767  00000-0  91131-3 0  6280
2 04911 099.9548 231.7060 0074702 177.4778 242.3218 14.15241859215236
0 THORAD AGENA D DEB
1 04911U 70025FH  13292.09836061  .00001635  00000-0  84508-3 0  6292
2 04911 099.9551 234.2297 0074845 171.1699 254.4335 14.15246494215550
0 THORAD AGENA D DEB
1 04911U 70025FH  13294.16024269  .00001507  00000-0  78096-3 0  6306
2 04911 099.9551 236.5294 0074902 165.4213 319.5861 14.15253431215842
